ORBCOMM-X [-]           
1 21576U 91050C   23238.20607682  .00000366  00000+0  12442-3 0  9995
2 21576  98.4302 304.6733 0004222  38.2555 321.8933 14.42150790686814
ORBCOMM FM01 [-]        
1 23545U 95017A   23238.50035098  .00003240  00000+0  47832-3 0  9994
2 23545  69.9669 261.4751 0007844 253.2348 106.7939 14.76205183514600
ORBCOMM FM02 [-]        
1 23546U 95017B   23238.52034158  .00004189  00000+0  62349-3 0  9996
2 23546  69.9700 280.3586 0009305 244.8066 115.2117 14.75611709514269
ORBCOMM FM08 [-]        
1 25112U 97084A   23238.49639216  .00001297  00000+0  44258-3 0  9991
2 25112  45.0154 286.6421 0007329 172.3005 187.7958 14.41140349345929
ORBCOMM FM10 [-]        
1 25113U 97084B   23238.21382133  .00001164  00000+0  40236-3 0  9990
2 25113  45.0166 289.6813 0004007 148.7347 211.3742 14.41088451521035
ORBCOMM FM11 [+]        
1 25114U 97084C   23238.21204980  .00001154  00000+0  39995-3 0  9993
2 25114  45.0151 289.5634 0004707 145.2902 214.8255 14.40977964346000
ORBCOMM FM12 [-]        
1 25115U 97084D   23238.51466533  .00001159  00000+0  40154-3 0  9995
2 25115  45.0157 287.7587 0003859 154.1838 205.9205 14.40975045345843
ORBCOMM FM09 [-]        
1 25116U 97084E   23238.24353013  .00001169  00000+0  40495-3 0  9993
2 25116  45.0163 289.6732 0004362 125.8059 234.3196 14.40954457346013
