<?xml version="1.0" encoding="UTF-8"?>
<ndm xmlns:xsi="http://www.w3.org/2001/XMLSchema-instance" xsi:noNamespaceSchemaLocation="https://sanaregistry.org/r/ndmxml_unqualified/ndmxml-2.0.0-master-2.0.xsd">
<omm id="CCSDS_OMM_VERS" version="2.0">
<header><CREATION_DATE/><ORIGINATOR/></header><body><segment><metadata><OBJECT_NAME>ORBCOMM-X [-]</OBJECT_NAME><OBJECT_ID>1991-050C</OBJECT_ID><CENTER_NAME>EARTH</CENTER_NAME><REF_FRAME>TEME</REF_FRAME><TIME_SYSTEM>UTC</TIME_SYSTEM><MEAN_ELEMENT_THEORY>SGP4</MEAN_ELEMENT_THEORY></metadata><data><meanElements><EPOCH>2023-08-26T04:56:45.037248</EPOCH><MEAN_MOTION>14.42150790</MEAN_MOTION><ECCENTRICITY>.0004222</ECCENTRICITY><INCLINATION>98.4302</INCLINATION><RA_OF_ASC_NODE>304.6733</RA_OF_ASC_NODE><ARG_OF_PERICENTER>38.2555</ARG_OF_PERICENTER><MEAN_ANOMALY>321.8933</MEAN_ANOMALY></meanElements><tleParameters><EPHEMERIS_TYPE>0</EPHEMERIS_TYPE><CLASSIFICATION_TYPE>U</CLASSIFICATION_TYPE><NORAD_CAT_ID>21576</NORAD_CAT_ID><ELEMENT_SET_NO>999</ELEMENT_SET_NO><REV_AT_EPOCH>68681</REV_AT_EPOCH><BSTAR>.12442E-3</BSTAR><MEAN_MOTION_DOT>.366E-5</MEAN_MOTION_DOT><MEAN_MOTION_DDOT>0</MEAN_MOTION_DDOT></tleParameters></data></segment></body></omm>
<omm id="CCSDS_OMM_VERS" version="2.0">
<header><CREATION_DATE/><ORIGINATOR/></header><body><segment><metadata><OBJECT_NAME>ORBCOMM FM01 [-]</OBJECT_NAME><OBJECT_ID>1995-017A</OBJECT_ID><CENTER_NAME>EARTH</CENTER_NAME><REF_FRAME>TEME</REF_FRAME><TIME_SYSTEM>UTC</TIME_SYSTEM><MEAN_ELEMENT_THEORY>SGP4</MEAN_ELEMENT_THEORY></metadata><data><meanElements><EPOCH>2023-08-26T12:00:30.324672</EPOCH><MEAN_MOTION>14.76205183</MEAN_MOTION><ECCENTRICITY>.0007844</ECCENTRICITY><INCLINATION>69.9669</INCLINATION><RA_OF_ASC_NODE>261.4751</RA_OF_ASC_NODE><ARG_OF_PERICENTER>253.2348</ARG_OF_PERICENTER><MEAN_ANOMALY>106.7939</MEAN_ANOMALY></meanElements><tleParameters><EPHEMERIS_TYPE>0</EPHEMERIS_TYPE><CLASSIFICATION_TYPE>U</CLASSIFICATION_TYPE><NORAD_CAT_ID>23545</NORAD_CAT_ID><ELEMENT_SET_NO>999</ELEMENT_SET_NO><REV_AT_EPOCH>51460</REV_AT_EPOCH><BSTAR>.47832E-3</BSTAR><MEAN_MOTION_DOT>.324E-4</MEAN_MOTION_DOT><MEAN_MOTION_DDOT>0</MEAN_MOTION_DDOT></tleParameters></data></segment></body></omm>
<omm id="CCSDS_OMM_VERS" version="2.0">
<header><CREATION_DATE/><ORIGINATOR/></header><body><segment><metadata><OBJECT_NAME>ORBCOMM FM02 [-]</OBJECT_NAME><OBJECT_ID>1995-017B</OBJECT_ID><CENTER_NAME>EARTH</CENTER_NAME><REF_FRAME>TEME</REF_FRAME><TIME_SYSTEM>UTC</TIME_SYSTEM><MEAN_ELEMENT_THEORY>SGP4</MEAN_ELEMENT_THEORY></metadata><data><meanElements><EPOCH>2023-08-26T12:29:17.512512</EPOCH><MEAN_MOTION>14.75611709</MEAN_MOTION><ECCENTRICITY>.0009305</ECCENTRICITY><INCLINATION>69.9700</INCLINATION><RA_OF_ASC_NODE>280.3586</RA_OF_ASC_NODE><ARG_OF_PERICENTER>244.8066</ARG_OF_PERICENTER><MEAN_ANOMALY>115.2117</MEAN_ANOMALY></meanElements><tleParameters><EPHEMERIS_TYPE>0</EPHEMERIS_TYPE><CLASSIFICATION_TYPE>U</CLASSIFICATION_TYPE><NORAD_CAT_ID>23546</NORAD_CAT_ID><ELEMENT_SET_NO>999</ELEMENT_SET_NO><REV_AT_EPOCH>51426</REV_AT_EPOCH><BSTAR>.62349E-3</BSTAR><MEAN_MOTION_DOT>.4189E-4</MEAN_MOTION_DOT><MEAN_MOTION_DDOT>0</MEAN_MOTION_DDOT></tleParameters></data></segment></body></omm>
<omm id="CCSDS_OMM_VERS" version="2.0">
<header><CREATION_DATE/><ORIGINATOR/></header><body><segment><metadata><OBJECT_NAME>ORBCOMM FM08 [-]</OBJECT_NAME><OBJECT_ID>1997-084A</OBJECT_ID><CENTER_NAME>EARTH</CENTER_NAME><REF_FRAME>TEME</REF_FRAME><TIME_SYSTEM>UTC</TIME_SYSTEM><MEAN_ELEMENT_THEORY>SGP4</MEAN_ELEMENT_THEORY></metadata><data><meanElements><EPOCH>2023-08-26T11:54:48.282624</EPOCH><MEAN_MOTION>14.41140349</MEAN_MOTION><ECCENTRICITY>.0007329</ECCENTRICITY><INCLINATION>45.0154</INCLINATION><RA_OF_ASC_NODE>286.6421</RA_OF_ASC_NODE><ARG_OF_PERICENTER>172.3005</ARG_OF_PERICENTER><MEAN_ANOMALY>187.7958</MEAN_ANOMALY></meanElements><tleParameters><EPHEMERIS_TYPE>0</EPHEMERIS_TYPE><CLASSIFICATION_TYPE>U</CLASSIFICATION_TYPE><NORAD_CAT_ID>25112</NORAD_CAT_ID><ELEMENT_SET_NO>999</ELEMENT_SET_NO><REV_AT_EPOCH>34592</REV_AT_EPOCH><BSTAR>.44258E-3</BSTAR><MEAN_MOTION_DOT>.1297E-4</MEAN_MOTION_DOT><MEAN_MOTION_DDOT>0</MEAN_MOTION_DDOT></tleParameters></data></segment></body></omm>
<omm id="CCSDS_OMM_VERS" version="2.0">
<header><CREATION_DATE/><ORIGINATOR/></header><body><segment><metadata><OBJECT_NAME>ORBCOMM FM10 [-]</OBJECT_NAME><OBJECT_ID>1997-084B</OBJECT_ID><CENTER_NAME>EARTH</CENTER_NAME><REF_FRAME>TEME</REF_FRAME><TIME_SYSTEM>UTC</TIME_SYSTEM><MEAN_ELEMENT_THEORY>SGP4</MEAN_ELEMENT_THEORY></metadata><data><meanElements><EPOCH>2023-08-26T05:07:54.162912</EPOCH><MEAN_MOTION>14.41088451</MEAN_MOTION><ECCENTRICITY>.0004007</ECCENTRICITY><INCLINATION>45.0166</INCLINATION><RA_OF_ASC_NODE>289.6813</RA_OF_ASC_NODE><ARG_OF_PERICENTER>148.7347</ARG_OF_PERICENTER><MEAN_ANOMALY>211.3742</MEAN_ANOMALY></meanElements><tleParameters><EPHEMERIS_TYPE>0</EPHEMERIS_TYPE><CLASSIFICATION_TYPE>U</CLASSIFICATION_TYPE><NORAD_CAT_ID>25113</NORAD_CAT_ID><ELEMENT_SET_NO>999</ELEMENT_SET_NO><REV_AT_EPOCH>52103</REV_AT_EPOCH><BSTAR>.40236E-3</BSTAR><MEAN_MOTION_DOT>.1164E-4</MEAN_MOTION_DOT><MEAN_MOTION_DDOT>0</MEAN_MOTION_DDOT></tleParameters></data></segment></body></omm>
<omm id="CCSDS_OMM_VERS" version="2.0">
<header><CREATION_DATE/><ORIGINATOR/></header><body><segment><metadata><OBJECT_NAME>ORBCOMM FM11 [+]</OBJECT_NAME><OBJECT_ID>1997-084C</OBJECT_ID><CENTER_NAME>EARTH</CENTER_NAME><REF_FRAME>TEME</REF_FRAME><TIME_SYSTEM>UTC</TIME_SYSTEM><MEAN_ELEMENT_THEORY>SGP4</MEAN_ELEMENT_THEORY></metadata><data><meanElements><EPOCH>2023-08-26T05:05:21.102720</EPOCH><MEAN_MOTION>14.40977964</MEAN_MOTION><ECCENTRICITY>.0004707</ECCENTRICITY><INCLINATION>45.0151</INCLINATION><RA_OF_ASC_NODE>289.5634</RA_OF_ASC_NODE><ARG_OF_PERICENTER>145.2902</ARG_OF_PERICENTER><MEAN_ANOMALY>214.8255</MEAN_ANOMALY></meanElements><tleParameters><EPHEMERIS_TYPE>0</EPHEMERIS_TYPE><CLASSIFICATION_TYPE>U</CLASSIFICATION_TYPE><NORAD_CAT_ID>25114</NORAD_CAT_ID><ELEMENT_SET_NO>999</ELEMENT_SET_NO><REV_AT_EPOCH>34600</REV_AT_EPOCH><BSTAR>.39995E-3</BSTAR><MEAN_MOTION_DOT>.1154E-4</MEAN_MOTION_DOT><MEAN_MOTION_DDOT>0</MEAN_MOTION_DDOT></tleParameters></data></segment></body></omm>
<omm id="CCSDS_OMM_VERS" version="2.0">
<header><CREATION_DATE/><ORIGINATOR/></header><body><segment><metadata><OBJECT_NAME>ORBCOMM FM12 [-]</OBJECT_NAME><OBJECT_ID>1997-084D</OBJECT_ID><CENTER_NAME>EARTH</CENTER_NAME><REF_FRAME>TEME</REF_FRAME><TIME_SYSTEM>UTC</TIME_SYSTEM><MEAN_ELEMENT_THEORY>SGP4</MEAN_ELEMENT_THEORY></metadata><data><meanElements><EPOCH>2023-08-26T12:21:07.084512</EPOCH><MEAN_MOTION>14.40975045</MEAN_MOTION><ECCENTRICITY>.0003859</ECCENTRICITY><INCLINATION>45.0157</INCLINATION><RA_OF_ASC_NODE>287.7587</RA_OF_ASC_NODE><ARG_OF_PERICENTER>154.1838</ARG_OF_PERICENTER><MEAN_ANOMALY>205.9205</MEAN_ANOMALY></meanElements><tleParameters><EPHEMERIS_TYPE>0</EPHEMERIS_TYPE><CLASSIFICATION_TYPE>U</CLASSIFICATION_TYPE><NORAD_CAT_ID>25115</NORAD_CAT_ID><ELEMENT_SET_NO>999</ELEMENT_SET_NO><REV_AT_EPOCH>34584</REV_AT_EPOCH><BSTAR>.40154E-3</BSTAR><MEAN_MOTION_DOT>.1159E-4</MEAN_MOTION_DOT><MEAN_MOTION_DDOT>0</MEAN_MOTION_DDOT></tleParameters></data></segment></body></omm>
<omm id="CCSDS_OMM_VERS" version="2.0">
<header><CREATION_DATE/><ORIGINATOR/></header><body><segment><metadata><OBJECT_NAME>ORBCOMM FM09 [-]</OBJECT_NAME><OBJECT_ID>1997-084E</OBJECT_ID><CENTER_NAME>EARTH</CENTER_NAME><REF_FRAME>TEME</REF_FRAME><TIME_SYSTEM>UTC</TIME_SYSTEM><MEAN_ELEMENT_THEORY>SGP4</MEAN_ELEMENT_THEORY></metadata><data><meanElements><EPOCH>2023-08-26T05:50:41.003232</EPOCH><MEAN_MOTION>14.40954457</MEAN_MOTION><ECCENTRICITY>.0004362</ECCENTRICITY><INCLINATION>45.0163</INCLINATION><RA_OF_ASC_NODE>289.6732</RA_OF_ASC_NODE><ARG_OF_PERICENTER>125.8059</ARG_OF_PERICENTER><MEAN_ANOMALY>234.3196</MEAN_ANOMALY></meanElements><tleParameters><EPHEMERIS_TYPE>0</EPHEMERIS_TYPE><CLASSIFICATION_TYPE>U</CLASSIFICATION_TYPE><NORAD_CAT_ID>25116</NORAD_CAT_ID><ELEMENT_SET_NO>999</ELEMENT_SET_NO><REV_AT_EPOCH>34601</REV_AT_EPOCH><BSTAR>.40495E-3</BSTAR><MEAN_MOTION_DOT>.1169E-4</MEAN_MOTION_DOT><MEAN_MOTION_DDOT>0</MEAN_MOTION_DDOT></tleParameters></data></segment></body></omm>

</ndm>
